OBJECT_NAME,OBJECT_ID,EPOCH,MEAN_MOTION,ECCENTRICITY,INCLINATION,RA_OF_ASC_NODE,ARG_OF_PERICENTER,MEAN_ANOMALY,EPHEMERIS_TYPE,CLASSIFICATION_TYPE,NORAD_CAT_ID,ELEMENT_SET_NO,REV_AT_EPOCH,BSTAR,MEAN_MOTION_DOT,MEAN_MOTION_DDOT
CUTE-1 (CO-55),2003-031E,2026-07-10T00:11:45.746304,14.24349450,.00107182,98.6739,199.2802,116.0719,244.1564,0,U,27844,999,19492,.97602803E-4,.182E-5,0
CUBESAT XI-IV (CO-57),2003-031J,2026-07-09T12:23:12.233184,14.23632552,.00103422,98.6771,198.4889,134.3964,225.8063,0,U,27848,999,19455,.91111366E-4,.164E-5,0
CUBESAT XI-V,2005-043F,2026-07-10T08:49:55.529184,14.72694805,.00150968,98.3010,347.4805,129.3634,230.8913,0,U,28895,999,10516,.14886521E-3,.898E-5,0
CUTE-1.7+APD II (CO-65),2008-021C,2026-07-10T20:18:57.523104,15.09673937,.0007356,97.8285,173.7622,317.1063,42.9591,0,U,32785,999,98876,.18628E-3,.2933E-4,0
CANX-2,2008-021H,2026-07-10T09:57:18.809856,15.05787205,.0009255,97.8654,171.6476,335.2716,24.8065,0,U,32790,999,98830,.18069664E-3,.2555E-4,0
SEEDS II (CO-66),2008-021J,2026-07-10T10:27:44.320896,15.33559548,.0002534,97.7526,190.4573,167.6964,192.4340,0,U,32791,999,99085,.41058285E-3,.13245E-3,0
SWISSCUBE,2009-051B,2026-07-10T05:23:59.772768,14.62525191,.0007597,98.4015,99.5130,132.4528,227.7317,0,U,35932,999,89252,.12813068E-3,.6E-5,0
BEESAT-1,2009-051C,2026-07-09T13:29:13.081344,14.61756321,.00057994,98.3943,98.4270,144.7622,215.3963,0,U,35933,999,89245,.11590478E-3,.529E-5,0
ITUPSAT1,2009-051E,2026-07-10T04:32:15.089856,14.60474362,.00077396,98.4025,98.2308,157.5053,202.6487,0,U,35935,999,89209,.10252703E-3,.448E-5,0
TISAT 1,2010-035E,2026-07-10T07:14:46.005504,15.32608332,.00041393,98.0701,139.9178,129.6791,230.4814,0,U,36799,999,87124,.47786423E-3,.14975E-3,0
STRAND-1,2013-009E,2026-07-10T10:46:18.460128,14.37177134,.00091491,98.3931,11.1117,154.2343,205.9301,0,U,39090,999,70040,.73430578E-4,.176E-5,0
BRITE-AUSTRIA,2013-009F,2026-07-09T23:37:17.286240,14.36551135,.0010453,98.4005,9.8568,165.5592,194.5896,0,U,39091,999,70032,.50636952E-4,.106E-5,0
NEE-01 PEGASO,2013-018B,2026-07-09T15:21:07.078464,14.93776228,.00138751,98.1250,335.5366,90.6498,269.6310,0,U,39151,999,71405,.1219934E-3,.1233E-4,0
POPACS 2,2013-055E,2026-07-09T05:58:19.946208,14.91853625,.04154574,80.9909,118.9327,122.9592,241.2292,0,U,39269,999,66650,.24178562E-3,.14766E-3,-.881509E-6
POPACS 3,2013-055F,2026-07-10T18:04:06.234816,14.56583988,.0549328,80.9987,203.6259,358.2288,1.6941,0,U,39270,999,64198,.2139E-3,.9026E-4,0
ZACUBE-1 (TSHEPISOSAT),2013-066B,2026-07-10T11:15:35.395488,15.01316108,.00437413,97.8014,153.9218,170.3489,189.8585,0,U,39417,999,68422,.1306034E-3,.165E-4,0
WNISAT-1,2013-066H,2026-07-10T08:06:32.485536,14.58113098,.01635627,97.7228,338.8542,158.5388,202.2775,0,U,39423,999,67010,.15355646E-3,.802E-5,0
TRITON-1,2013-066M,2026-07-10T14:14:35.058912,14.81787752,.00902211,97.8225,100.8660,156.9842,203.5453,0,U,39427,999,67755,.21704821E-3,.1782E-4,0
GOMX-1,2013-066Q,2026-07-10T14:37:20.939232,14.69535778,.01287355,97.6478,30.5941,2.9471,357.2465,0,U,39430,999,67335,.15749002E-3,.1009E-4,0
CUBEBUG-2 (LO-74),2013-066AA,2026-07-10T07:20:24.677952,14.93948233,.00561215,97.8906,140.3858,311.9936,47.6511,0,U,39440,999,68044,.18439435E-3,.1961E-4,0
NEE-02 KRYSAOR,2013-066AB,2026-07-10T07:04:37.483392,14.86726426,.00658491,97.8892,130.3465,355.4507,4.6102,0,U,39441,999,67963,.17498287E-3,.1559E-4,0
FUNCUBE-1 (AO-73),2013-066AE,2026-07-09T20:35:35.418048,15.09776510,.00378182,97.8287,162.7825,124.9796,235.4993,0,U,39444,999,68308,.31713173E-3,.5139E-4,0
UWE-3,2013-066AG,2026-07-10T08:11:15.078336,14.97180749,.00475418,97.8693,147.5751,241.4844,118.1586,0,U,39446,999,68104,.17602772E-3,.2018E-4,0
BRITE-CA1 (TORONTO),2014-033L,2026-07-09T04:30:04.468608,14.72715027,.00780057,97.9764,318.7133,205.5751,154.1590,0,U,40020,999,64545,.1176575E-3,.733E-5,0
DUCHIFAT-1,2014-033M,2026-07-10T03:16:50.086848,15.70000067,.00018466,98.0434,253.6137,252.3958,107.7101,0,U,40021,999,65934,.96017557E-3,.116517E-2,0
NANOSATC-BR1,2014-033Q,2026-07-10T01:38:36.579552,15.32216392,.00052997,98.0721,225.4947,109.2883,250.8931,0,U,40024,999,65748,.40164653E-3,.12417E-3,0
QB50P1,2014-033R,2026-07-10T06:43:55.731360,15.18618170,.00100557,98.0969,204.0508,139.1601,221.0386,0,U,40025,999,65653,.26646951E-3,.5444E-4,0
QB50P2,2014-033Y,2026-07-09T19:35:04.526304,15.15461423,.00093148,98.0761,189.1099,98.7744,261.4542,0,U,40032,999,65609,.28728165E-3,.5365E-4,0
PERSEUS-M2,2014-033AD,2026-07-10T19:33:30.198240,14.95579646,.0010646,97.9967,142.8378,214.5007,145.5523,0,U,40037,999,65431,.13026E-3,.1385E-4,0
PERSEUS-M1,2014-033AF,2026-07-10T14:02:50.480736,14.95703980,.001066,97.9649,136.1031,213.1165,146.9389,0,U,40039,999,65413,.11578E-3,.1229E-4,0
